{
  "norad_id": 64670,
  "name": "STARLINK-34287",
  "history": [
    {
      "epoch": "2026-03-28T13:33:12.600288Z",
      "apogee_km": 475.9103021378096,
      "perigee_km": 474.4409519105766,
      "latitude_deg": 2.0758500961636123e-05,
      "longitude_deg": 10.101656001291932,
      "height_km": 475.8713526921264,
      "semi_major_axis_km": 6853.312627024193,
      "eccentricity": 0.0001072,
      "inclination_deg": 53.1592,
      "raan_deg": 39.3875,
      "arg_perigee_deg": 73.9927,
      "mean_anomaly_deg": 286.1192,
      "mean_motion_rev_day": 15.3021321
    },
    {
      "epoch": "2026-03-29T03:39:41.182272Z",
      "apogee_km": 475.9773582504822,
      "perigee_km": 474.4052047427076,
      "latitude_deg": -5.095228537144335e-05,
      "longitude_deg": 155.17341839509422,
      "height_km": 475.93757436080637,
      "semi_major_axis_km": 6853.328281496595,
      "eccentricity": 0.0001147,
      "inclination_deg": 53.1592,
      "raan_deg": 36.6578,
      "arg_perigee_deg": 78.8577,
      "mean_anomaly_deg": 281.2552,
      "mean_motion_rev_day": 15.30207967
    },
    {
      "epoch": "2026-03-30T03:10:29.342784Z",
      "apogee_km": 476.0203915432885,
      "perigee_km": 474.4948259033872,
      "latitude_deg": 1.656149078155188e-05,
      "longitude_deg": 156.955840362681,
      "height_km": 475.91750767249977,
      "semi_major_axis_km": 6853.394608723338,
      "eccentricity": 0.0001113,
      "inclination_deg": 53.1592,
      "raan_deg": 32.1065,
      "arg_perigee_deg": 71.7896,
      "mean_anomaly_deg": 288.3226,
      "mean_motion_rev_day": 15.30185753
    },
    {
      "epoch": "2026-03-30T03:10:29.343648Z",
      "apogee_km": 476.0203915432885,
      "perigee_km": 474.4948259033872,
      "latitude_deg": 1.656149119233678e-05,
      "longitude_deg": 156.9558367528268,
      "height_km": 475.9175076725038,
      "semi_major_axis_km": 6853.394608723338,
      "eccentricity": 0.0001113,
      "inclination_deg": 53.1592,
      "raan_deg": 32.1065,
      "arg_perigee_deg": 71.7896,
      "mean_anomaly_deg": 288.3226,
      "mean_motion_rev_day": 15.30185753
    },
    {
      "epoch": "2026-03-30T12:34:48.552384Z",
      "apogee_km": 475.8799622242159,
      "perigee_km": 474.4902455679885,
      "latitude_deg": -1.0664820044814548e-05,
      "longitude_deg": 13.669117106077717,
      "height_km": 475.81974046467553,
      "semi_major_axis_km": 6853.322103896102,
      "eccentricity": 0.00010139,
      "inclination_deg": 53.1594,
      "raan_deg": 30.2861,
      "arg_perigee_deg": 67.6854,
      "mean_anomaly_deg": 292.4254,
      "mean_motion_rev_day": 15.30210036
    },
    {
      "epoch": "2026-03-31T19:55:52.841280Z",
      "apogee_km": 475.96790777665865,
      "perigee_km": 474.34367738481706,
      "latitude_deg": -1.3258211741756396e-05,
      "longitude_deg": -103.95260118818663,
      "height_km": 475.90459975739435,
      "semi_major_axis_km": 6853.292792580738,
      "eccentricity": 0.0001185,
      "inclination_deg": 53.1602,
      "raan_deg": 24.2198,
      "arg_perigee_deg": 79.396,
      "mean_anomaly_deg": 280.7174,
      "mean_motion_rev_day": 15.30219853
    },
    {
      "epoch": "2026-04-01T02:12:05.489280Z",
      "apogee_km": 475.8359667979812,
      "perigee_km": 474.5453481335271,
      "latitude_deg": 6.901453040873134e-05,
      "longitude_deg": 160.52355331681198,
      "height_km": 476.25278958828227,
      "semi_major_axis_km": 6853.327657465754,
      "eccentricity": 9.416e-05,
      "inclination_deg": 53.1601,
      "raan_deg": 23.0061,
      "arg_perigee_deg": 104.6835,
      "mean_anomaly_deg": 255.4271,
      "mean_motion_rev_day": 15.30208176
    },
    {
      "epoch": "2026-04-02T01:42:53.244576Z",
      "apogee_km": 475.75701290642246,
      "perigee_km": 474.6687009491434,
      "latitude_deg": 1.7549762311741266e-05,
      "longitude_deg": 162.3086802475465,
      "height_km": 475.8652381167246,
      "semi_major_axis_km": 6853.349856927783,
      "eccentricity": 7.94e-05,
      "inclination_deg": 53.1612,
      "raan_deg": 18.4559,
      "arg_perigee_deg": 63.0552,
      "mean_anomaly_deg": 297.053,
      "mean_motion_rev_day": 15.30200741
    },
    {
      "epoch": "2026-04-02T22:05:34.292256Z",
      "apogee_km": 475.8856631127737,
      "perigee_km": 474.30105918866866,
      "latitude_deg": 3.3787131309445705e-05,
      "longitude_deg": -148.14293661092333,
      "height_km": 475.9140026219736,
      "semi_major_axis_km": 6853.230361150721,
      "eccentricity": 0.00011561,
      "inclination_deg": 53.1618,
      "raan_deg": 14.5122,
      "arg_perigee_deg": 84.3646,
      "mean_anomaly_deg": 275.7487,
      "mean_motion_rev_day": 15.30240763
    },
    {
      "epoch": "2026-04-03T12:12:03.646656Z",
      "apogee_km": 476.66601141446336,
      "perigee_km": 473.7755392391409,
      "latitude_deg": -4.3890758696340746e-05,
      "longitude_deg": -3.0750057596518543,
      "height_km": 475.80415197663024,
      "semi_major_axis_km": 6853.357775326802,
      "eccentricity": 0.00021088,
      "inclination_deg": 53.1619,
      "raan_deg": 11.7819,
      "arg_perigee_deg": 77.46,
      "mean_anomaly_deg": 282.6636,
      "mean_motion_rev_day": 15.30198089
    },
    {
      "epoch": "2026-04-04T17:59:04.144992Z",
      "apogee_km": 476.15451595941886,
      "perigee_km": 474.01631056647966,
      "latitude_deg": 1.864333535038834e-05,
      "longitude_deg": -96.81360004344421,
      "height_km": 475.69384509979903,
      "semi_major_axis_km": 6853.222413262949,
      "eccentricity": 0.000156,
      "inclination_deg": 53.1618,
      "raan_deg": 6.0185,
      "arg_perigee_deg": 74.2869,
      "mean_anomaly_deg": 285.8304,
      "mean_motion_rev_day": 15.30243425
    },
    {
      "epoch": "2026-04-05T11:13:41.249856Z",
      "apogee_km": 476.24921459076813,
      "perigee_km": 474.415089176342,
      "latitude_deg": 8.242517980239892e-05,
      "longitude_deg": 0.4861716547540447,
      "height_km": 476.2642829451021,
      "semi_major_axis_km": 6853.469151883555,
      "eccentricity": 0.00013381,
      "inclination_deg": 53.1626,
      "raan_deg": 2.681,
      "arg_perigee_deg": 92.1183,
      "mean_anomaly_deg": 267.9972,
      "mean_motion_rev_day": 15.30160788
    },
    {
      "epoch": "2026-04-05T20:38:00.599424Z",
      "apogee_km": 476.044042766699,
      "perigee_km": 474.39786618603375,
      "latitude_deg": 3.4032831647720086e-05,
      "longitude_deg": -142.79965331851753,
      "height_km": 476.0323947216601,
      "semi_major_axis_km": 6853.357954476366,
      "eccentricity": 0.0001201,
      "inclination_deg": 53.162,
      "raan_deg": 0.8621,
      "arg_perigee_deg": 83.9361,
      "mean_anomaly_deg": 276.1777,
      "mean_motion_rev_day": 15.30198029
    },
    {
      "epoch": "2026-04-06T02:54:13.050432Z",
      "apogee_km": 475.90990405691537,
      "perigee_km": 474.40629111250473,
      "latitude_deg": 4.681679439796567e-05,
      "longitude_deg": 121.67697156191132,
      "height_km": 475.9623837997616,
      "semi_major_axis_km": 6853.29509758471,
      "eccentricity": 0.0001097,
      "inclination_deg": 53.1595,
      "raan_deg": 359.6481,
      "arg_perigee_deg": 82.8186,
      "mean_anomaly_deg": 277.294,
      "mean_motion_rev_day": 15.30219081
    },
    {
      "epoch": "2026-04-07T10:15:15.345216Z",
      "apogee_km": 475.6744125525629,
      "perigee_km": 474.6386057715881,
      "latitude_deg": 6.747248738877774e-05,
      "longitude_deg": 4.061896990370523,
      "height_km": 475.97207834597936,
      "semi_major_axis_km": 6853.293509162076,
      "eccentricity": 7.557e-05,
      "inclination_deg": 53.1583,
      "raan_deg": 353.5801,
      "arg_perigee_deg": 80.7754,
      "mean_anomaly_deg": 279.3333,
      "mean_motion_rev_day": 15.30219613
    },
    {
      "epoch": "2026-04-07T16:31:28.438176Z",
      "apogee_km": 476.70688409808463,
      "perigee_km": 473.6105650897134,
      "latitude_deg": -2.266546587443493e-05,
      "longitude_deg": -91.46373715484273,
      "height_km": 475.85235132932615,
      "semi_major_axis_km": 6853.295724593899,
      "eccentricity": 0.0002259,
      "inclination_deg": 53.1584,
      "raan_deg": 352.3666,
      "arg_perigee_deg": 82.4693,
      "mean_anomaly_deg": 277.6564,
      "mean_motion_rev_day": 15.30218871
    },
    {
      "epoch": "2026-04-08T09:46:03.951552Z",
      "apogee_km": 475.91429902956224,
      "perigee_km": 474.5574682660581,
      "latitude_deg": 4.989659488306051e-06,
      "longitude_deg": 5.84485589513249,
      "height_km": 476.09496069849706,
      "semi_major_axis_km": 6853.37288364781,
      "eccentricity": 9.899e-05,
      "inclination_deg": 53.159,
      "raan_deg": 349.0313,
      "arg_perigee_deg": 86.6817,
      "mean_anomaly_deg": 273.4297,
      "mean_motion_rev_day": 15.30193029
    },
    {
      "epoch": "2026-04-09T09:16:51.547008Z",
      "apogee_km": 476.2514001890422,
      "perigee_km": 474.1349547636346,
      "latitude_deg": 3.559060426144416e-05,
      "longitude_deg": 7.62820766740064,
      "height_km": 476.1260701293788,
      "semi_major_axis_km": 6853.330177476339,
      "eccentricity": 0.00015441,
      "inclination_deg": 53.1587,
      "raan_deg": 344.4786,
      "arg_perigee_deg": 91.9138,
      "mean_anomaly_deg": 268.204,
      "mean_motion_rev_day": 15.30207332
    },
    {
      "epoch": "2026-04-09T23:23:20.002848Z",
      "apogee_km": 475.75256907957555,
      "perigee_km": 474.66932890275893,
      "latitude_deg": 2.603195272536532e-06,
      "longitude_deg": 152.70182433349922,
      "height_km": 476.3492867682868,
      "semi_major_axis_km": 6853.347948991167,
      "eccentricity": 7.903e-05,
      "inclination_deg": 53.1582,
      "raan_deg": 341.7502,
      "arg_perigee_deg": 116.2689,
      "mean_anomaly_deg": 243.8393,
      "mean_motion_rev_day": 15.3020138
    },
    {
      "epoch": "2026-04-11T08:18:27.296064Z",
      "apogee_km": 475.97837000255913,
      "perigee_km": 474.46103682842204,
      "latitude_deg": -5.953273710912675e-06,
      "longitude_deg": 11.195903894959919,
      "height_km": 475.9424144369227,
      "semi_major_axis_km": 6853.35670341549,
      "eccentricity": 0.0001107,
      "inclination_deg": 53.1592,
      "raan_deg": 335.3766,
      "arg_perigee_deg": 76.6214,
      "mean_anomaly_deg": 283.491,
      "mean_motion_rev_day": 15.30198448
    },
    {
      "epoch": "2026-04-12T21:55:44.023008Z",
      "apogee_km": 475.99706513581896,
      "perigee_km": 474.44820585819707,
      "latitude_deg": -4.252833719849017e-07,
      "longitude_deg": 158.05075850451175,
      "height_km": 476.0171835791967,
      "semi_major_axis_km": 6853.359635497008,
      "eccentricity": 0.000113,
      "inclination_deg": 53.1592,
      "raan_deg": 328.0962,
      "arg_perigee_deg": 82.3087,
      "mean_anomaly_deg": 277.8042,
      "mean_motion_rev_day": 15.30197466
    }
  ]
}